ONEWEB-0584             
1 54651U 22166K   23315.61018934  .00000083  00000+0  17046-3 0  9995
2 54651  87.9239  72.8087 0002077  93.9009 266.2362 13.21824826 46205
ONEWEB-0585             
1 54652U 22166L   23315.33263188  .00000008  00000+0 -12372-4 0  9994
2 54652  87.9242  72.8679 0001478  90.7528 269.3775 13.21824083 46175
ONEWEB-0586             
1 54653U 22166M   23315.57235023  .00000066  00000+0  12849-3 0  9999
2 54653  87.9217  72.8567 0001910  94.9031 265.2321 13.21826296 46204
ONEWEB-0587             
1 54654U 22166N   23315.58181511  .00000086  00000+0  17787-3 0  9991
2 54654  87.9232  72.8055 0001307 108.4128 251.7148 13.21830956 46364
ONEWEB-0589             
1 54655U 22166P   23315.56919012  .00000973  00000+0  23233-2 0  9992
2 54655  87.9245  72.8269 0002936  98.0550 262.0917 13.21820267 46226
ONEWEB-0590             
1 54656U 22166Q   23315.59284432  .00000148  00000+0  32705-3 0  9996
2 54656  87.9241  72.8257 0001641 108.4095 251.7217 13.21822414 46215
ONEWEB-0591             
1 54657U 22166R   23315.37837538  .00000020  00000+0  17883-4 0  9994
2 54657  87.9245  72.8687 0001868  98.8411 261.2935 13.21825351 46218
ONEWEB-0592             
1 54658U 22166S   23315.60861926  .00000179  00000+0  40237-3 0  9992
2 54658  87.9233  72.8017 0002240 105.0707 255.0674 13.21824228 46120
